{
    "links": {
        "self": "http://www.neowsapp.com/rest/v1/neo/3776276?api_key=iIulBulltgU6a56xZRHN4H3l9WmuAYTsLGpBGhQ2"
    },
    "id": "3776276",
    "neo_reference_id": "3776276",
    "name": "(2017 MO8)",
    "designation": "2017 MO8",
    "nasa_jpl_url": "http://ssd.jpl.nasa.gov/sbdb.cgi?sstr=3776276",
    "absolute_magnitude_h": 26.0,
    "estimated_diameter": {
        "kilometers": {
            "estimated_diameter_min": 0.0167708462,
            "estimated_diameter_max": 0.0375007522
        },
        "meters": {
            "estimated_diameter_min": 16.7708462163,
            "estimated_diameter_max": 37.5007521798
        },
        "miles": {
            "estimated_diameter_min": 0.0104209175,
            "estimated_diameter_max": 0.0233018799
        },
        "feet": {
            "estimated_diameter_min": 55.0224631002,
            "estimated_diameter_max": 123.0339677816
        }
    },
    "is_potentially_hazardous_asteroid": false,
    "close_approach_data": [
        {
            "close_approach_date": "2017-07-03",
            "close_approach_date_full": "2017-Jul-03 14:12",
            "epoch_date_close_approach": 1499091120000,
            "relative_velocity": {
                "kilometers_per_second": "10.9362495401",
                "kilometers_per_hour": "39370.4983444716",
                "miles_per_hour": "24463.296596319"
            },
            "miss_distance": {
                "astronomical": "0.0104989789",
                "lunar": "4.0841027921",
                "kilometers": "1570624.880614943",
                "miles": "975941.0458264934"
            },
            "orbiting_body": "Earth"
        },
        {
            "close_approach_date": "2109-09-29",
            "close_approach_date_full": "2109-Sep-29 10:31",
            "epoch_date_close_approach": 4409893860000,
            "relative_velocity": {
                "kilometers_per_second": "18.7603635571",
                "kilometers_per_hour": "67537.3088056741",
                "miles_per_hour": "41965.0572409479"
            },
            "miss_distance": {
                "astronomical": "0.387505637",
                "lunar": "150.739692793",
                "kilometers": "57970017.90819319",
                "miles": "36020898.816878422"
            },
            "orbiting_body": "Earth"
        }
    ],
    "orbital_data": {
        "orbit_id": "2",
        "orbit_determination_date": "2017-07-04 06:19:51",
        "first_observation_date": "2017-06-29",
        "last_observation_date": "2017-07-03",
        "data_arc_in_days": 4,
        "observations_used": 34,
        "orbit_uncertainty": "8",
        "minimum_orbit_intersection": ".000679752",
        "jupiter_tisserand_invariant": "3.173",
        "epoch_osculation": "2457934.5",
        "eccentricity": ".6194834689194196",
        "semi_major_axis": "2.49435711004829",
        "inclination": ".6689342189987457",
        "ascending_node_longitude": "163.9680160936502",
        "orbital_period": "1438.919083231369",
        "perihelion_distance": ".9491441147917566",
        "perihelion_argument": "151.7035826290905",
        "aphelion_distance": "4.039570105304822",
        "perihelion_time": "2457964.417778842992",
        "mean_anomaly": "352.5149367264696",
        "mean_motion": ".2501878001308808",
        "equinox": "J2000",
        "orbit_class": {
            "orbit_class_type": "APO",
            "orbit_class_description": "Near-Earth asteroid orbits which cross the Earth’s orbit similar to that of 1862 Apollo",
            "orbit_class_range": "a (semi-major axis) > 1.0 AU; q (perihelion) < 1.017 AU"
        }
    },
    "is_sentry_object": false
}